BRAC ONNESHA            
1 42823U 98067MX  18076.47100580  .00029541  00000-0  31480-3 0  9996
2 42823  51.6363 106.5069 0004061 198.3216 161.7633 15.63709905 39467
NIGERIAEDUSAT-1         
1 42824U 98067MY  18075.46280235  .00024590  00000-0  26515-3 0  9993
2 42824  51.6371 111.7841 0003970 195.3079 164.7797 15.63517171 39292
CORVUS BC2              
1 42846U 17042X   18075.71030081  .00000101  00000-0  15358-4 0  9997
2 42846  97.6047 341.8845 0010595 137.5473 222.6568 14.91773994 36589
CORVUS BC1              
1 42847U 17042Y   18075.69410182  .00000289  00000-0  33880-4 0  9996
2 42847  97.6047 341.9047 0010220 137.3079 222.8936 14.91872948 36579
SILU-1 (SILKROAD 1)     
1 42903U 17021F   18076.45718911  .00023975  00000-0  21662-3 0  9993
2 42903  42.7770 162.2020 0011785   7.7378  55.1042 15.67535339 35512
MIRATA                  
1 43015U 17073C   18075.88094195  .00000980  00000-0  83541-4 0  9998
2 43015  97.6993  10.8257 0258126 211.7560 146.7864 14.77877933 17502
ASTERIA                 
1 43020U 98067NH  18076.50045746  .00015004  00000-0  20913-3 0  9990
2 43020  51.6392 114.2338 0001939 171.1746 188.9280 15.57140103 18190
DELLINGR (RBLE)         
1 43021U 98067NJ  18076.47159191  .00009802  00000-0  14388-3 0  9995
2 43021  51.6388 114.7859 0001897 169.5391 190.5641 15.56204750 18186
TECHEDSAT 6             
1 43026U 98067NK  18076.52871734  .00150437  00000-0  12174-2 0  9991
2 43026  51.6336 109.1402 0003455  23.8406 336.2751 15.69801717 18166
OSIRIS-3U               
1 43027U 98067NL  18076.46955143  .00035738  00000-0  44539-3 0  9999
2 43027  51.6376 113.2716 0002259 139.5935 220.5226 15.59551549 18085
AEROCUBE 7B             
1 43042U 17071F   18076.14648843  .00005420  00000-0  15203-3 0  9994
2 43042  51.6385 129.7116 0004973 296.2656  63.7817 15.38194236 15436
AEROCUBE 7C             
1 43043U 17071G   18076.40569915  .00005398  00000-0  15140-3 0  9990
2 43043  51.6388 128.4445 0004972 297.6893  62.3586 15.38208134 15440
CHEFSAT                 
1 43044U 17071H   18076.19579124  .00007583  00000-0  20533-3 0  9990
2 43044  51.6392 129.2977 0005043 294.0542  65.9914 15.38673475 15412
ASGARDIA 1              
1 43049U 17071N   18075.42043927  .00004131  00000-0  11775-3 0  9991
2 43049  51.6392 133.1183 0002448 318.0172  42.0624 15.38353635 15284
ISARA                   
1 43050U 17071P   18075.60744585  .00006107  00000-0  16765-3 0  9990
2 43050  51.6392 132.1215 0002501 315.3499  44.7284 15.38624942 15321
FAUNA                   
1 43052U 17071R   18075.41585968  .00004190  00000-0  11893-3 0  9996
2 43052  51.6394 133.0918 0002345 314.0146  46.0644 15.38446899 15289
CORVUS BC3              
1 43118U 18004H   18075.91159184  .00001107  00000-0  51449-4 0  9995
2 43118  97.5445 138.2738 0012126  62.4115 297.8350 15.22069629  9674
MICROMAS-2A             
1 43131U 18004W   18076.35954066  .00003053  00000-0  13500-3 0  9998
2 43131  97.5448 138.7554 0011336  64.8526 295.3885 15.22427121  9746
GOMX4-B                 
1 43196U 18015E   18076.32317205  .00025530  00000-0  10643-2 0  9994
2 43196  97.3313 207.2461 0021560 119.2932 241.0411 15.23464039  6549
GOMX4-A                 
1 43197U 18015F   18076.46634125  .00001237  00000-0  54427-4 0  9991
2 43197  97.3304 207.3789 0020992 119.0711 289.7470 15.23541236  6577
